NORAD_CAT_ID,OBJECT_NAME,OBJECT_TYPE,EPOCH,MEAN_MOTION,ECCENTRICITY,INCLINATION,RA_OF_ASC_NODE,ARG_OF_PERICENTER,MEAN_ANOMALY,BSTAR,MEAN_MOTION_DOT,MEAN_MOTION_DDOT,TLE_LINE0,TLE_LINE1,TLE_LINE2,SEMIMAJOR_AXIS,PERIOD,APOGEE,PERIGEE,DECAYED
56797.0,STARLINK-6058,PAYLOAD,2024-03-08 03:57:54,14.98333723,0.000269,70.0005,28.9347,259.042,101.0436,-1.1001e-05,-2.24e-06,0.0,0 STARLINK-6058,1 56797U 23078AG  24068.16521373 -.00000224  00000-0 -11001-4 0  9999,2 56797  70.0005  28.9347 0002690 259.0420 101.0436 14.98333723 43364,6950.181,96.107,573.916,570.177,0.0
56797.0,STARLINK-6058,PAYLOAD,2024-03-08 07:10:10,14.98337565,0.0002756,70.0006,28.5983,261.6292,98.4555,3.4687e-05,3.21e-06,0.0,0 STARLINK-6058,1 56797U 23078AG  24068.29872949  .00000321  00000-0  34687-4 0  9992,2 56797  70.0006  28.5983 0002756 261.6292  98.4555 14.98337565 43129,6950.169,96.107,573.95,570.119,0.0
56797.0,STARLINK-6058,PAYLOAD,2024-03-09 03:59:55,14.98327896,0.0002388,70.0014,26.4101,264.7065,95.3822,1.3716e-05,7.1e-07,0.0,0 STARLINK-6058,1 56797U 23078AG  24069.16661631  .00000071  00000-0  13716-4 0  9995,2 56797  70.0014  26.4101 0002388 264.7065  95.3822 14.98327896 43512,6950.199,96.107,573.724,570.405,0.0
56797.0,STARLINK-6058,PAYLOAD,2024-03-09 07:12:12,14.98310386,0.0002349,70.002,26.0738,266.9593,93.1297,0.00034097,3.976e-05,0.0,0 STARLINK-6058,1 56797U 23078AG  24069.30013980  .00003976  00000-0  34097-3 0  9990,2 56797  70.0020  26.0738 0002349 266.9593  93.1297 14.98310386 43538,6950.254,96.108,573.751,570.486,0.0
56797.0,STARLINK-6058,PAYLOAD,2024-03-09 20:01:15,14.98332886,0.0002613,70.0019,24.7272,271.1821,88.9038,7.3124e-05,7.8e-06,0.0,0 STARLINK-6058,1 56797U 23078AG  24069.83421043  .00000780  00000-0  73124-4 0  9996,2 56797  70.0019  24.7272 0002613 271.1821  88.9038 14.98332886 43613,6950.184,96.107,573.865,570.233,0.0
56797.0,STARLINK-6058,PAYLOAD,2024-03-10 13:38:44,14.98340377,0.0002252,70.0032,22.8771,260.771,99.3195,-0.00019116,-2.373e-05,0.0,0 STARLINK-6058,1 56797U 23078AG  24070.56857057 -.00002373  00000-0 -19116-3 0  9998,2 56797  70.0032  22.8771 0002252 260.7710  99.3195 14.98340377 43468,6950.161,96.106,573.591,570.461,0.0
56797.0,STARLINK-6058,PAYLOAD,2024-03-10 20:03:16,14.98328832,0.0002172,70.003,22.2041,263.7544,96.3367,2.025e-05,1.49e-06,0.0,0 STARLINK-6058,1 56797U 23078AG  24070.83561293  .00000149  00000-0  20250-4 0  9991,2 56797  70.0030  22.2041 0002172 263.7544  96.3367 14.98328832 43762,6950.197,96.107,573.571,570.552,0.0
56797.0,STARLINK-6058,PAYLOAD,2024-03-10 21:39:25,14.98328735,0.000219,70.0029,22.0358,263.7174,96.3736,1.4999e-05,8.6e-07,0.0,0 STARLINK-6058,1 56797U 23078AG  24070.90237308  .00000086  00000-0  14999-4 0  9999,2 56797  70.0029  22.0358 0002190 263.7174  96.3736 14.98328735 43513,6950.197,96.107,573.584,570.54,0.0
56797.0,STARLINK-6058,PAYLOAD,2024-03-11 13:40:45,14.98324954,0.0002855,70.0009,20.3506,268.5149,91.5683,2.038e-05,1.5e-06,0.0,0 STARLINK-6058,1 56797U 23078AG  24071.56997488  .00000150  00000-0  20380-4 0  9997,2 56797  70.0009  20.3506 0002855 268.5149  91.5683 14.98324954 43618,6950.208,96.107,574.058,570.089,0.0
56797.0,STARLINK-6058,PAYLOAD,2024-03-12 04:05:58,14.98330394,0.00026,70.0016,18.8368,266.3492,93.7369,-3.6835e-05,-5.32e-06,0.0,0 STARLINK-6058,1 56797U 23078AG  24072.17081338 -.00000532  00000-0 -36835-4 0  9991,2 56797  70.0016  18.8368 0002600 266.3492  93.7369 14.98330394 43967,6950.192,96.107,573.864,570.25,0.0
56797.0,STARLINK-6058,PAYLOAD,2024-03-12 13:42:46,14.98344211,0.0002815,70.0013,17.8259,271.5505,88.5332,-0.00022537,-2.782e-05,0.0,0 STARLINK-6058,1 56797U 23078AG  24072.57136793 -.00002782  00000-0 -22537-3 0  9993,2 56797  70.0013  17.8259 0002815 271.5505  88.5332 14.98344211 44026,6950.149,96.106,573.97,570.057,0.0
56797.0,STARLINK-6058,PAYLOAD,2024-03-13 04:07:58,14.98330945,0.0002804,70.0012,16.3111,268.0366,92.0472,6.558e-05,6.9e-06,0.0,0 STARLINK-6058,1 56797U 23078AG  24073.17220960  .00000690  00000-0  65580-4 0  9990,2 56797  70.0012  16.3111 0002804 268.0366  92.0472 14.98330945 44114,6950.19,96.107,574.004,570.106,0.0
56797.0,STARLINK-6058,PAYLOAD,2024-03-13 13:44:47,14.98332315,0.0002799,70.0015,15.2997,269.6952,90.3886,2.0873e-05,1.56e-06,0.0,0 STARLINK-6058,1 56797U 23078AG  24073.57276949  .00000156  00000-0  20873-4 0  9995,2 56797  70.0015  15.2997 0002799 269.6952  90.3886 14.98332315 43918,6950.186,96.107,573.996,570.105,0.0
56797.0,STARLINK-6058,PAYLOAD,2024-03-13 21:45:27,14.98327979,0.0002758,70.0014,14.4588,268.0246,92.0597,3.2693e-05,2.97e-06,0.0,0 STARLINK-6058,1 56797U 23078AG  24073.90657226  .00000297  00000-0  32693-4 0  9992,2 56797  70.0014  14.4588 0002758 268.0246  92.0597 14.98327979 43961,6950.199,96.107,573.981,570.147,0.0
56797.0,STARLINK-6058,PAYLOAD,2024-03-14 04:09:59,14.98333039,0.0002734,70.0014,13.7852,267.292,92.7927,2.537e-05,2.1e-06,0.0,0 STARLINK-6058,1 56797U 23078AG  24074.17360944  .00000210  00000-0  25370-4 0  9999,2 56797  70.0014  13.7852 0002734 267.2920  92.7927 14.98333039 44263,6950.183,96.107,573.949,570.148,0.0
56797.0,STARLINK-6058,PAYLOAD,2024-03-14 05:46:07,14.98334494,0.0002731,70.0015,13.6169,267.4563,92.6284,4.0132e-05,3.86e-06,0.0,0 STARLINK-6058,1 56797U 23078AG  24074.24036796  .00000386  00000-0  40132-4 0  9999,2 56797  70.0015  13.6169 0002731 267.4563  92.6284 14.98334494 44010,6950.179,96.107,573.942,570.146,0.0
56797.0,STARLINK-6058,PAYLOAD,2024-03-14 20:11:20,14.98327795,0.0002646,70.0018,12.1025,269.2497,90.8358,-4.3485e-05,-6.12e-06,0.0,0 STARLINK-6058,1 56797U 23078AG  24074.84121445 -.00000612  00000-0 -43485-4 0  9999,2 56797  70.0018  12.1025 0002646 269.2497  90.8358 14.98327795 44365,6950.2,96.107,573.904,570.226,0.0
56797.0,STARLINK-6058,PAYLOAD,2024-03-14 21:47:29,14.98327521,0.0002594,70.0019,11.9339,269.255,90.8312,-6.5359e-05,-8.73e-06,0.0,0 STARLINK-6058,1 56797U 23078AG  24074.90797540 -.00000873  00000-0 -65359-4 0  9994,2 56797  70.0019  11.9339 0002594 269.2550  90.8312 14.98327521 44113,6950.201,96.107,573.868,570.263,0.0
56797.0,STARLINK-6058,PAYLOAD,2024-03-15 05:48:09,14.98327178,0.0002652,70.0018,11.0937,263.9929,96.0928,-5.9321e-05,-8.01e-06,0.0,0 STARLINK-6058,1 56797U 23078AG  24075.24177568 -.00000801  00000-0 -59321-4 0  9997,2 56797  70.0018  11.0937 0002652 263.9929  96.0928 14.98327178 44167,6950.202,96.107,573.91,570.223,0.0
56797.0,STARLINK-6058,PAYLOAD,2024-03-16 04:14:01,14.98335959,0.0002686,70.0018,8.739,260.9124,99.1731,3.6906e-05,3.48e-06,0.0,0 STARLINK-6058,1 56797U 23078AG  24076.17640642  .00000348  00000-0  36906-4 0  9996,2 56797  70.0018   8.7390 0002686 260.9124  99.1731 14.98335959 44560,6950.174,96.107,573.906,570.173,0.0
56797.0,STARLINK-6058,PAYLOAD,2024-03-16 05:50:09,14.98336362,0.0002666,70.0018,8.5698,262.181,97.9046,4.6304e-05,4.6e-06,0.0,0 STARLINK-6058,1 56797U 23078AG  24076.24316580  .00000460  00000-0  46304-4 0  9993,2 56797  70.0018   8.5698 0002666 262.1810  97.9046 14.98336362 44310,6950.173,96.107,573.891,570.185,0.0
56797.0,STARLINK-6058,PAYLOAD,2024-03-16 20:15:22,14.98325587,0.0002729,70.0017,7.0548,258.1573,101.928,3.964e-05,3.8e-06,0.0,0 STARLINK-6058,1 56797U 23078AG  24076.84401184  .00000380  00000-0  39640-4 0  9990,2 56797  70.0017   7.0548 0002729 258.1573 101.9280 14.98325587 44669,6950.207,96.107,573.968,570.175,0.0
56797.0,STARLINK-6058,PAYLOAD,2024-03-16 21:51:30,14.98325731,0.0002728,70.0018,6.8864,258.1379,101.9474,4.0227e-05,3.87e-06,0.0,0 STARLINK-6058,1 56797U 23078AG  24076.91077186  .00000387  00000-0  40227-4 0  9999,2 56797  70.0018   6.8864 0002728 258.1379 101.9474 14.98325731 44410,6950.206,96.107,573.967,570.175,0.0
56797.0,STARLINK-6058,PAYLOAD,2024-03-17 05:52:10,14.98327595,0.0002697,70.0019,6.0448,257.0826,103.0032,5.6892e-05,5.86e-06,0.0,0 STARLINK-6058,1 56797U 23078AG  24077.24457071  .00000586  00000-0  56892-4 0  9997,2 56797  70.0019   6.0448 0002697 257.0826 103.0032 14.98327595 44469,6950.2,96.107,573.94,570.191,0.0
56797.0,STARLINK-6058,PAYLOAD,2024-03-17 20:17:23,14.98332883,0.0002637,70.0023,4.5305,252.1237,107.9635,-2.5666e-07,-9.6e-07,0.0,0 STARLINK-6058,1 56797U 23078AG  24077.84540795 -.00000096  00000-0 -25666-6 0  9994,2 56797  70.0023   4.5305 0002637 252.1237 107.9635 14.98332883 44812,6950.184,96.107,573.882,570.216,0.0
56797.0,STARLINK-6058,PAYLOAD,2024-03-17 21:53:31,14.98332957,0.0002644,70.0023,4.3622,251.7539,108.3332,9.3847e-07,-8.2e-07,0.0,0 STARLINK-6058,1 56797U 23078AG  24077.91216768 -.00000082  00000-0  93847-6 0  9992,2 56797  70.0023   4.3622 0002644 251.7539 108.3332 14.98332957 44563,6950.184,96.107,573.886,570.211,0.0
56797.0,STARLINK-6058,PAYLOAD,2024-03-18 05:54:11,14.98333484,0.0002629,70.0024,3.5207,252.8463,107.2408,5.9592e-06,-2.2e-07,0.0,0 STARLINK-6058,1 56797U 23078AG  24078.24596662 -.00000022  00000-0  59592-5 0  9995,2 56797  70.0024   3.5207 0002629 252.8463 107.2408 14.98333484 44619,6950.182,96.107,573.874,570.22,0.0
56797.0,STARLINK-6058,PAYLOAD,2024-03-18 21:55:32,14.98330005,0.0002675,70.0025,1.8381,248.6637,111.4237,1.5211e-05,8.9e-07,0.0,0 STARLINK-6058,1 56797U 23078AG  24078.91356740  .00000089  00000-0  15211-4 0  9991,2 56797  70.0025   1.8381 0002675 248.6637 111.4237 14.98330005 44715,6950.193,96.107,573.917,570.199,0.0
56797.0,STARLINK-6058,PAYLOAD,2024-03-19 02:43:56,14.98329384,0.000267,70.0025,1.3331,249.596,110.4913,7.7802e-06,0.0,0.0,0 STARLINK-6058,1 56797U 23078AG  24079.11384807 -.00000000  00000-0  77802-5 0  9998,2 56797  70.0025   1.3331 0002670 249.5960 110.4913 14.98329384 45000,6950.195,96.107,573.915,570.204,0.0
56797.0,STARLINK-6058,PAYLOAD,2024-03-19 04:20:04,14.98330461,0.0002652,70.0022,1.1633,259.3602,100.7259,2.4313e-05,1.97e-06,0.0,0 STARLINK-6058,1 56797U 23078AG  24079.18060745  .00000197  00000-0  24313-4 0  9991,2 56797  70.0022   1.1633 0002652 259.3602 100.7259 14.98330461 44756,6950.191,96.107,573.9,570.213,0.0
